H1 CPF  1  DLR 2021 12 16 10  8502 technosat            
H2  1704205 6203    42829 2021 12 16 00 00 00 2021 12 23 00 00 00    60 1 1  0 0 0
H9
10 0 59564  14400.000000  0        215166.341      -1620371.690       6778465.765
10 0 59564  14460.000000  0          6077.297      -2013697.385       6675625.102
10 0 59564  14520.000000  0       -206433.668      -2396737.087       6544598.499
10 0 59564  14580.000000  0       -421378.558      -2767857.195       6385932.602
10 0 59564  14640.000000  0       -637744.653      -3125481.690       6200289.942
10 0 59564  14700.000000  0       -854499.137      -3468098.779       5988446.399
10 0 59564  14760.000000  0      -1070593.878      -3794267.312       5751288.252
10 0 59564  14820.000000  0      -1284970.402      -4102622.941       5489808.845
10 0 59564  14880.000000  0      -1496565.038      -4391884.008       5205104.780
10 0 59564  14940.000000  0      -1704314.159      -4660857.125       4898371.615
10 0 59564  15000.000000  0      -1907159.500      -4908442.375       4570899.102
10 0 59564  15060.000000  0      -2104053.529      -5133638.151       4224065.989
10 0 59564  15120.000000  0      -2293964.848      -5335545.508       3859334.306
10 0 59564  15180.000000  0      -2475883.542      -5513372.004       3478243.282
10 0 59564  15240.000000  0      -2648826.487      -5666435.057       3082402.919
10 0 59564  15300.000000  0      -2811842.594      -5794164.809       2673487.238
10 0 59564  15360.000000  0      -2964017.956      -5896106.504       2253227.195
10 0 59564  15420.000000  0      -3104480.851      -5971922.306       1823403.292
10 0 59564  15480.000000  0      -3232406.609      -6021392.587       1385837.934
10 0 59564  15540.000000  0      -3347022.270      -6044416.625        942387.532
10 0 59564  15600.000000  0      -3447611.007      -6041012.724        494934.459
10 0 59564  15660.000000  0      -3533516.325      -6011317.782         45378.842
10 0 59564  15720.000000  0      -3604145.967      -5955586.279       -404369.775
10 0 59564  15780.000000  0      -3658975.508      -5874188.646       -852400.823
10 0 59564  15840.000000  0      -3697551.630      -5767609.082      -1296811.108
10 0 59564  15900.000000  0      -3719495.035      -5636442.786      -1735713.174
10 0 59564  15960.000000  0      -3724502.997      -5481392.667      -2167243.578
10 0 59564  16020.000000  0      -3712351.523      -5303265.523      -2589571.045
10 0 59564  16080.000000  0      -3682897.108      -5102967.709      -3000904.446
10 0 59564  16140.000000  0      -3636078.056      -4881500.369      -3399500.538
10 0 59564  16200.000000  0      -3571915.405      -4639954.233      -3783671.442
10 0 59564  16260.000000  0      -3490513.436      -4379504.046      -4151791.819
10 0 59564  16320.000000  0      -3392059.784      -4101402.670      -4502305.741
10 0 59564  16380.000000  0      -3276825.133      -3806974.837      -4833733.237
10 0 59564  16440.000000  0      -3145162.506      -3497610.621      -5144676.440
10 0 59564  16500.000000  0      -2997506.163      -3174758.682      -5433825.332
10 0 59564  16560.000000  0      -2834370.115      -2839919.299      -5699963.089
10 0 59564  16620.000000  0      -2656346.254      -2494637.275      -5941970.991
10 0 59564  16680.000000  0      -2464102.113      -2140494.696      -6158832.954
10 0 59564  16740.000000  0      -2258378.220      -1779103.550      -6349639.571
10 0 59564  16800.000000  0      -2039985.125      -1412098.324      -6513591.633
10 0 59564  16860.000000  0      -1809800.129      -1041128.575      -6650003.207
10 0 59564  16920.000000  0      -1568763.695       -667851.520      -6758304.215
10 0 59564  16980.000000  0      -1317875.610       -293924.690      -6838042.541
10 0 59564  17040.000000  0      -1058190.864         79001.319      -6888885.753
10 0 59564  17100.000000  0       -790815.215        449290.016      -6910622.388
10 0 59564  17160.000000  0       -516900.496        815326.128      -6903162.763
10 0 59564  17220.000000  0       -237639.710       1175522.584      -6866539.228
10 0 59564  17280.000000  0         45738.031       1528327.204      -6800905.999
10 0 59564  17340.000000  0        331972.792       1872229.326      -6706538.719
10 0 59564  17400.000000  0        619779.427       2205766.300      -6583833.442
10 0 59564  17460.000000  0        907853.353       2527529.669      -6433305.042
10 0 59564  17520.000000  0       1194876.373       2836171.118      -6255585.206
10 0 59564  17580.000000  0       1479522.627       3130408.194      -6051419.952
10 0 59564  17640.000000  0       1760464.684       3409029.655      -5821666.689
10 0 59564  17700.000000  0       2036379.706       3670900.511      -5567290.861
10 0 59564  17760.000000  0       2305955.660       3914966.758      -5289362.142
10 0 59564  17820.000000  0       2567897.549       4140259.785      -4989050.177
10 0 59564  17880.000000  0       2820933.673       4345900.408      -4667619.876
10 0 59564  17940.000000  0       3063821.832       4531102.511      -4326426.262
10 0 59564  18000.000000  0       3295355.465       4695176.225      -3966908.893
10 0 59564  18060.000000  0       3514369.687       4837530.677      -3590585.950
10 0 59564  18120.000000  0       3719747.276       4957676.330      -3199047.910
10 0 59564  18180.000000  0       3910424.449       5055226.775      -2793950.778
10 0 59564  18240.000000  0       4085396.364       5129899.999      -2377009.067
10 0 59564  18300.000000  0       4243722.428       5181519.217      -1949988.537
10 0 59564  18360.000000  0       4384531.344       5210013.237      -1514698.621
10 0 59564  18420.000000  0       4507025.896       5215416.315      -1072984.605
10 0 59564  18480.000000  0       4610487.381       5197867.414       -626719.573
10 0 59564  18540.000000  0       4694279.635       5157608.914       -177796.259
10 0 59564  18600.000000  0       4757852.658       5094984.854        271881.194
10 0 59564  18660.000000  0       4800745.810       5010438.685        720405.509
10 0 59564  18720.000000  0       4822590.582       4904510.605       1165874.521
10 0 59564  18780.000000  0       4823113.028       4777834.454       1606399.415
10 0 59564  18840.000000  0       4802135.763       4631134.133       2040112.980
10 0 59564  18900.000000  0       4759579.420       4465219.542       2465177.802
10 0 59564  18960.000000  0       4695463.532       4280982.088       2879794.249
10 0 59564  19020.000000  0       4609906.961       4079389.890       3282208.163
10 0 59564  19080.000000  0       4503127.891       3861482.628       3670718.368
10 0 59564  19140.000000  0       4375443.266       3628366.058       4043683.882
10 0 59564  19200.000000  0       4227267.816       3381206.314       4399530.723
10 0 59564  19260.000000  0       4059112.758       3121224.057       4736758.492
10 0 59564  19320.000000  0       3871583.913       2849688.343       5053946.800
10 0 59564  19380.000000  0       3665379.158       2567910.198       5349761.070
10 0 59564  19440.000000  0       3441285.654       2277236.275       5622957.795
10 0 59564  19500.000000  0       3200176.741       1979042.405       5872389.573
10 0 59564  19560.000000  0       2943008.410       1674727.017       6097009.688
10 0 59564  19620.000000  0       2670815.392       1365704.526       6295876.242
10 0 59564  19680.000000  0       2384706.900       1053398.777       6468155.793
10 0 59564  19740.000000  0       2085862.065        739236.563       6613126.576
10 0 59564  19800.000000  0       1775525.047        424641.234       6730181.333
10 0 59564  19860.000000  0       1454999.851        111026.359       6818829.705
10 0 59564  19920.000000  0       1125644.878       -200210.542       6878700.192
10 0 59564  19980.000000  0        788867.179       -507694.224       6909541.596
10 0 59564  20040.000000  0        446116.516       -810077.713       6911223.927
10 0 59564  20100.000000  0         98879.192      -1106048.099       6883738.945
10 0 59564  20160.000000  0       -251328.325      -1394332.187       6827200.192
10 0 59564  20220.000000  0       -602965.927      -1673701.932       6741842.561
10 0 59564  20280.000000  0       -954476.564      -1942979.626       6628021.364
10 0 59564  20340.000000  0      -1304292.994      -2201042.801       6486210.920
10 0 59564  20400.000000  0      -1650844.586      -2446828.845       6317002.786
10 0 59564  20460.000000  0      -1992564.262      -2679339.382       6121103.603
10 0 59564  20520.000000  0      -2327895.523      -2897644.403       5899332.482
10 0 59564  20580.000000  0      -2655299.584      -3100886.134       5652617.928
10 0 59564  20640.000000  0      -2973262.557      -3288282.542       5381994.215
10 0 59564  20700.000000  0      -3280302.579      -3459130.450       5088597.242
10 0 59564  20760.000000  0      -3574976.776      -3612808.280       4773659.953
10 0 59564  20820.000000  0      -3855888.138      -3748778.421       4438507.371
10 0 59564  20880.000000  0      -4121692.270      -3866589.230       4084551.222
10 0 59564  20940.000000  0      -4371103.952      -3965876.615       3713284.130
10 0 59564  21000.000000  0      -4602903.485      -4046365.201       3326273.494
10 0 59564  21060.000000  0      -4815942.864      -4107869.126       2925155.003
10 0 59564  21120.000000  0      -5009151.673      -4150292.403       2511625.732
10 0 59564  21180.000000  0      -5181542.649      -4173628.829       2087436.898
10 0 59564  21240.000000  0      -5332216.857      -4177961.407       1654386.333
10 0 59564  21300.000000  0      -5460368.476      -4163461.338       1214310.757
10 0 59564  21360.000000  0      -5565289.207      -4130386.595        769077.823
10 0 59564  21420.000000  0      -5646372.199      -4079080.046        320577.969
10 0 59564  21480.000000  0      -5703115.495      -4009967.166       -129283.832
10 0 59564  21540.000000  0      -5735125.012      -3923553.353       -578596.439
99
